NORAD_CAT_ID,OBJECT_NAME,OBJECT_TYPE,EPOCH,MEAN_MOTION,ECCENTRICITY,INCLINATION,RA_OF_ASC_NODE,ARG_OF_PERICENTER,MEAN_ANOMALY,BSTAR,MEAN_MOTION_DOT,MEAN_MOTION_DDOT,TLE_LINE0,TLE_LINE1,TLE_LINE2,SEMIMAJOR_AXIS,PERIOD,APOGEE,PERIGEE,DECAYED
51113.0,STARLINK-3372,PAYLOAD,2024-04-22 07:24:04,15.08846008,0.0001516,53.2176,130.4056,77.103,283.0132,4.2589e-05,3.9e-06,0.0,0 STARLINK-3372,1 51113U 22005K   24113.30838862  .00000390  00000-0  42589-4 0  9993,2 51113  53.2176 130.4056 0001516  77.1030 283.0132 15.08846008125251,6917.862,95.437,540.776,538.678,0.0
51113.0,STARLINK-3372,PAYLOAD,2024-04-23 07:14:51,15.08843517,0.0001228,53.2156,125.9442,95.1242,264.989,0.00023993,3.533e-05,0.0,0 STARLINK-3372,1 51113U 22005K   24114.30198834  .00003533  00000-0  23993-3 0  9991,2 51113  53.2156 125.9442 0001228  95.1242 264.9890 15.08843517125400,6917.87,95.437,540.584,538.885,0.0
51113.0,STARLINK-3372,PAYLOAD,2024-04-24 03:54:52,15.08844837,0.0001362,53.2159,122.0765,104.0002,256.1142,6.9978e-05,8.26e-06,0.0,0 STARLINK-3372,1 51113U 22005K   24115.16310619  .00000826  00000-0  69978-4 0  9999,2 51113  53.2159 122.0765 0001362 104.0002 256.1142 15.08844837126648,6917.866,95.437,540.673,538.788,0.0
51113.0,STARLINK-3372,PAYLOAD,2024-04-24 10:16:24,15.08846793,0.0001337,53.2168,120.8874,96.7647,263.3497,6.9369e-05,8.16e-06,0.0,0 STARLINK-3372,1 51113U 22005K   24115.42806406  .00000816  00000-0  69369-4 0  9995,2 51113  53.2168 120.8874 0001337  96.7647 263.3497 15.08846793125576,6917.86,95.437,540.65,538.8,0.0
51113.0,STARLINK-3372,PAYLOAD,2024-04-25 05:21:02,15.08834823,0.000144,53.2169,117.317,108.6703,251.4445,1.3849e-05,-6.8e-07,0.0,0 STARLINK-3372,1 51113U 22005K   24116.22295103 -.00000068  00000-0  13849-4 0  9992,2 51113  53.2169 117.3170 0001440 108.6703 251.4445 15.08834823126807,6917.896,95.438,540.757,538.765,0.0
51113.0,STARLINK-3372,PAYLOAD,2024-04-26 06:47:13,15.08834334,0.0001252,53.2162,112.5619,87.4493,272.6643,-1.2987e-05,-4.95e-06,0.0,0 STARLINK-3372,1 51113U 22005K   24117.28279612 -.00000495  00000-0 -12987-4 0  9993,2 51113  53.2162 112.5619 0001252  87.4493 272.6643 15.08834334126965,6917.898,95.438,540.629,538.897,0.0
51113.0,STARLINK-3372,PAYLOAD,2024-04-26 16:19:31,15.08840218,0.0001294,53.2168,110.7771,88.9086,271.2054,5.7821e-05,6.32e-06,0.0,0 STARLINK-3372,1 51113U 22005K   24117.68023084  .00000632  00000-0  57821-4 0  9994,2 51113  53.2168 110.7771 0001294  88.9086 271.2054 15.08840218127027,6917.88,95.438,540.64,538.85,0.0
51113.0,STARLINK-3372,PAYLOAD,2024-04-27 09:48:45,15.08849265,0.0001461,53.2173,107.5084,101.5161,258.5995,0.00024316,3.585e-05,0.0,0 STARLINK-3372,1 51113U 22005K   24118.40886263  .00003585  00000-0  24316-3 0  9993,2 51113  53.2173 107.5084 0001461 101.5161 258.5995 15.08849265127131,6917.852,95.437,540.728,538.706,0.0
51113.0,STARLINK-3372,PAYLOAD,2024-04-27 16:10:18,15.08848138,0.0001337,53.2166,106.3188,99.338,260.7763,0.00020925,3.045e-05,0.0,0 STARLINK-3372,1 51113U 22005K   24118.67382256  .00003045  00000-0  20925-3 0  9998,2 51113  53.2166 106.3188 0001337  99.3380 260.7763 15.08848138126061,6917.856,95.437,540.645,538.796,0.0
51113.0,STARLINK-3372,PAYLOAD,2024-04-28 03:18:02,15.08824612,0.0001591,53.2175,104.2383,105.9714,254.1454,1.5542e-05,-4.1e-07,0.0,0 STARLINK-3372,1 51113U 22005K   24119.13752620 -.00000041  00000-0  15542-4 0  9990,2 51113  53.2175 104.2383 0001591 105.9714 254.1454 15.08824612127248,6917.927,95.439,540.893,538.692,0.0
51113.0,STARLINK-3372,PAYLOAD,2024-04-28 08:04:11,15.0883098,0.0001554,53.2168,103.3453,103.6288,256.4877,-1.6784e-05,-5.55e-06,0.0,0 STARLINK-3372,1 51113U 22005K   24119.33623854 -.00000555  00000-0 -16784-4 0  9998,2 51113  53.2168 103.3453 0001554 103.6288 256.4877 15.08830980127270,6917.908,95.438,540.848,538.698,0.0
51113.0,STARLINK-3372,PAYLOAD,2024-04-28 16:01:06,15.0883616,0.0001513,53.2165,101.8585,103.128,256.9881,-9.8443e-06,-4.45e-06,0.0,0 STARLINK-3372,1 51113U 22005K   24119.66743516 -.00000445  00000-0 -98443-5 0  9993,2 51113  53.2165 101.8585 0001513 103.1280 256.9881 15.08836160126217,6917.892,95.438,540.804,538.71,0.0
51113.0,STARLINK-3372,PAYLOAD,2024-04-29 04:44:11,15.08838564,0.0001432,53.216,99.4798,107.583,252.5319,0.00017789,2.544e-05,0.0,0 STARLINK-3372,1 51113U 22005K   24120.19735603  .00002544  00000-0  17789-3 0  9993,2 51113  53.2160  99.4798 0001432 107.5830 252.5319 15.08838564127409,6917.885,95.438,540.74,538.759,0.0
51113.0,STARLINK-3372,PAYLOAD,2024-04-29 07:54:57,15.08841382,0.0001428,53.2159,98.8842,108.3585,251.7563,0.00054044,8.324e-05,0.0,0 STARLINK-3372,1 51113U 22005K   24120.32983724  .00008324  00000-0  54044-3 0  9994,2 51113  53.2159  98.8842 0001428 108.3585 251.7563 15.08841382126314,6917.876,95.437,540.729,538.753,0.0
51113.0,STARLINK-3372,PAYLOAD,2024-04-29 22:13:25,15.08849621,0.000146,53.2158,96.2084,108.6354,251.4797,0.00045813,7.013e-05,0.0,0 STARLINK-3372,1 51113U 22005K   24120.92599470  .00007013  00000-0  45813-3 0  9999,2 51113  53.2158  96.2084 0001460 108.6354 251.4797 15.08849621126406,6917.851,95.437,540.726,538.706,0.0
51113.0,STARLINK-3372,PAYLOAD,2024-04-30 04:34:58,15.08846672,0.000147,53.2165,95.0197,106.5628,253.5526,0.00030965,4.644e-05,0.0,0 STARLINK-3372,1 51113U 22005K   24121.19095538  .00004644  00000-0  30965-3 0  9994,2 51113  53.2165  95.0197 0001470 106.5628 253.5526 15.08846672126448,6917.86,95.437,540.742,538.708,0.0
51113.0,STARLINK-3372,PAYLOAD,2024-04-30 15:42:40,15.08853135,0.0001448,53.2163,92.9372,107.312,252.803,0.00039085,5.94e-05,0.0,0 STARLINK-3372,1 51113U 22005K   24121.65463177  .00005940  00000-0  39085-3 0  9995,2 51113  53.2163  92.9372 0001448 107.3120 252.8030 15.08853135127623,6917.84,95.437,540.707,538.704,0.0
51113.0,STARLINK-3372,PAYLOAD,2024-05-01 04:25:45,15.08841845,0.0001564,53.2181,90.5579,108.0475,252.0688,4.0488e-05,3.56e-06,0.0,0 STARLINK-3372,1 51113U 22005K   24122.18455475  .00000356  00000-0  40488-4 0  9992,2 51113  53.2181  90.5579 0001564 108.0475 252.0688 15.08841845127701,6917.875,95.437,540.822,538.658,0.0
51113.0,STARLINK-3372,PAYLOAD,2024-05-01 21:54:59,15.0884894,0.0001395,53.2172,87.2871,103.7181,256.3966,0.0002083,3.03e-05,0.0,0 STARLINK-3372,1 51113U 22005K   24122.91319055  .00003030  00000-0  20830-3 0  9996,2 51113  53.2172  87.2871 0001395 103.7181 256.3966 15.08848940126705,6917.853,95.437,540.683,538.753,0.0
51113.0,STARLINK-3372,PAYLOAD,2024-05-02 07:27:18,15.08853689,0.0001272,53.2166,85.5041,94.9343,265.1794,0.00031456,4.724e-05,0.0,0 STARLINK-3372,1 51113U 22005K   24123.31062832  .00004724  00000-0  31456-3 0  9996,2 51113  53.2166  85.5041 0001272  94.9343 265.1794 15.08853689127875,6917.839,95.437,540.583,538.824,0.0
51113.0,STARLINK-3372,PAYLOAD,2024-05-03 04:07:19,15.08845561,0.0001343,53.2161,81.6368,92.1134,268.0011,0.00015809,2.229e-05,0.0,0 STARLINK-3372,1 51113U 22005K   24124.17174938  .00002229  00000-0  15809-3 0  9994,2 51113  53.2161  81.6368 0001343  92.1134 268.0011 15.08845561128006,6917.863,95.437,540.657,538.799,0.0
51113.0,STARLINK-3372,PAYLOAD,2024-05-03 13:39:37,15.08853927,0.0001321,53.2167,79.8528,91.5467,268.5676,0.0002226,3.258e-05,0.0,0 STARLINK-3372,1 51113U 22005K   24124.56918323  .00003258  00000-0  22260-3 0  9993,2 51113  53.2167  79.8528 0001321  91.5467 268.5676 15.08853927126956,6917.838,95.437,540.617,538.789,0.0
51113.0,STARLINK-3372,PAYLOAD,2024-05-04 03:58:07,15.08818952,0.0001361,53.2165,77.1769,97.2676,262.847,-0.00027063,-4.59e-05,0.0,0 STARLINK-3372,1 51113U 22005K   24125.16536421 -.00004590  00000-0 -27063-3 0  9993,2 51113  53.2165  77.1769 0001361  97.2676 262.8470 15.08818952128153,6917.945,95.439,540.751,538.868,0.0
51113.0,STARLINK-3372,PAYLOAD,2024-05-05 03:48:54,15.08836368,0.0001499,53.2172,72.7169,102.1115,258.0045,0.00013336,1.835e-05,0.0,0 STARLINK-3372,1 51113U 22005K   24126.15896592  .00001835  00000-0  13336-3 0  9996,2 51113  53.2172  72.7169 0001499 102.1115 258.0045 15.08836368128305,6917.891,95.438,540.793,538.719,0.0
51113.0,STARLINK-3372,PAYLOAD,2024-05-05 05:24:17,15.08836521,0.0001536,53.2171,72.4197,105.8676,254.2485,0.00025868,3.831e-05,0.0,0 STARLINK-3372,1 51113U 22005K   24126.22520683  .00003831  00000-0  25868-3 0  9990,2 51113  53.2171  72.4197 0001536 105.8676 254.2485 15.08836521127201,6917.891,95.438,540.819,538.693,0.0
51113.0,STARLINK-3372,PAYLOAD,2024-05-06 03:39:41,15.08863828,0.0001501,53.2169,68.2564,111.4614,248.6538,0.00090736,0.00014192,0.0,0 STARLINK-3372,1 51113U 22005K   24127.15256347  .00014192  00000-0  90736-3 0  9994,2 51113  53.2169  68.2564 0001501 111.4614 248.6538 15.08863828128450,6917.808,95.436,540.711,538.634,0.0
51113.0,STARLINK-3372,PAYLOAD,2024-05-06 13:11:59,15.08877014,0.0001759,53.2189,66.4703,82.6749,277.4443,0.0010504,0.00016486,0.0,0 STARLINK-3372,1 51113U 22005K   24127.54999723  .00016486  00000-0  10504-2 0  9991,2 51113  53.2189  66.4703 0001759  82.6749 277.4443 15.08877014127401,6917.767,95.435,540.849,538.415,0.0
51113.0,STARLINK-3372,PAYLOAD,2024-05-06 19:33:32,15.08842187,0.000173,53.2171,65.2817,95.0206,265.0983,-0.0002524,-4.303e-05,0.0,0 STARLINK-3372,1 51113U 22005K   24127.81496081 -.00004303  00000-0 -25240-3 0  9991,2 51113  53.2171  65.2817 0001730  95.0206 265.0983 15.08842187128552,6917.874,95.437,540.935,538.542,0.0
51113.0,STARLINK-3372,PAYLOAD,2024-05-07 13:02:47,15.08846085,0.0001409,53.2171,62.011,95.9541,264.1612,0.00078036,0.00012155,0.0,0 STARLINK-3372,1 51113U 22005K   24128.54360204  .00012155  00000-0  78036-3 0  9992,2 51113  53.2171  62.0110 0001409  95.9541 264.1612 15.08846085127556,6917.862,95.437,540.702,538.752,0.0
51113.0,STARLINK-3372,PAYLOAD,2024-05-07 19:24:19,15.08838001,0.0001422,53.2191,60.823,84.674,275.4414,0.00046544,7.127e-05,0.0,0 STARLINK-3372,1 51113U 22005K   24128.80856481  .00007127  00000-0  46544-3 0  9990,2 51113  53.2191  60.8230 0001422  84.6740 275.4414 15.08838001127596,6917.886,95.438,540.735,538.768,0.0
